{
  "norad_id": 33331,
  "name": "GEOEYE 1",
  "history": [
    {
      "epoch": "2026-03-28T19:31:46.365312Z",
      "apogee_km": 680.5259104646693,
      "perigee_km": 675.9025891258025,
      "latitude_deg": -4.236065529220533e-05,
      "longitude_deg": 43.58123137325584,
      "height_km": 679.2085476228665,
      "semi_major_axis_km": 7056.351249795235,
      "eccentricity": 0.0003276,
      "inclination_deg": 98.1278,
      "raan_deg": 162.7532,
      "arg_perigee_deg": 329.9621,
      "mean_anomaly_deg": 30.1393,
      "mean_motion_rev_day": 14.64645345
    },
    {
      "epoch": "2026-03-29T05:22:01.709760Z",
      "apogee_km": 680.5156476331749,
      "perigee_km": 675.9064410905985,
      "latitude_deg": 1.2745737001673983e-05,
      "longitude_deg": -103.98202731183649,
      "height_km": 679.241369277144,
      "semi_major_axis_km": 7056.348044361886,
      "eccentricity": 0.0003266,
      "inclination_deg": 98.1276,
      "raan_deg": 163.1579,
      "arg_perigee_deg": 328.5123,
      "mean_anomaly_deg": 31.5884,
      "mean_motion_rev_day": 14.64646343
    },
    {
      "epoch": "2026-03-30T04:19:17.482080Z",
      "apogee_km": 680.467817915167,
      "perigee_km": 675.9461127021959,
      "latitude_deg": -7.289844515185452e-05,
      "longitude_deg": -88.29563548263265,
      "height_km": 679.3553682587489,
      "semi_major_axis_km": 7056.343965308681,
      "eccentricity": 0.0003204,
      "inclination_deg": 98.1275,
      "raan_deg": 164.1027,
      "arg_perigee_deg": 324.7976,
      "mean_anomaly_deg": 35.3014,
      "mean_motion_rev_day": 14.64647613
    },
    {
      "epoch": "2026-03-30T12:31:10.227360Z",
      "apogee_km": 680.452181846732,
      "perigee_km": 675.958138651712,
      "latitude_deg": 4.73976403146246e-05,
      "longitude_deg": 148.73529655280615,
      "height_km": 679.398455320535,
      "semi_major_axis_km": 7056.342160249222,
      "eccentricity": 0.00031844,
      "inclination_deg": 98.1275,
      "raan_deg": 164.4401,
      "arg_perigee_deg": 323.3407,
      "mean_anomaly_deg": 36.7578,
      "mean_motion_rev_day": 14.64648175
    },
    {
      "epoch": "2026-03-30T22:21:25.519968Z",
      "apogee_km": 680.429489685198,
      "perigee_km": 675.9775033391379,
      "latitude_deg": -2.689713091890067e-05,
      "longitude_deg": 1.1724732722714455,
      "height_km": 679.4529875010703,
      "semi_major_axis_km": 7056.340496512168,
      "eccentricity": 0.00031546,
      "inclination_deg": 98.1274,
      "raan_deg": 164.845,
      "arg_perigee_deg": 321.6812,
      "mean_anomaly_deg": 38.4166,
      "mean_motion_rev_day": 14.64648693
    },
    {
      "epoch": "2026-03-31T19:40:18.614496Z",
      "apogee_km": 680.3929625834662,
      "perigee_km": 676.005332766842,
      "latitude_deg": 4.57898076808883e-05,
      "longitude_deg": 41.45307136246959,
      "height_km": 679.5622065368104,
      "semi_major_axis_km": 7056.336147675154,
      "eccentricity": 0.0003109,
      "inclination_deg": 98.1273,
      "raan_deg": 165.7222,
      "arg_perigee_deg": 318.1066,
      "mean_anomaly_deg": 41.9899,
      "mean_motion_rev_day": 14.64650047
    },
    {
      "epoch": "2026-04-01T20:15:56.724192Z",
      "apogee_km": 680.3483519164092,
      "perigee_km": 676.0439886825261,
      "latitude_deg": -2.479841008989864e-05,
      "longitude_deg": 32.54645590490176,
      "height_km": 679.7026092167018,
      "semi_major_axis_km": 7056.333170299467,
      "eccentricity": 0.000305,
      "inclination_deg": 98.1272,
      "raan_deg": 166.7344,
      "arg_perigee_deg": 313.8089,
      "mean_anomaly_deg": 46.2861,
      "mean_motion_rev_day": 14.64650974
    },
    {
      "epoch": "2026-04-02T19:13:12.127584Z",
      "apogee_km": 680.3151332169937,
      "perigee_km": 676.0587586128177,
      "latitude_deg": -5.353592821383641e-06,
      "longitude_deg": 48.23417436433884,
      "height_km": 679.820562628732,
      "semi_major_axis_km": 7056.323945914905,
      "eccentricity": 0.0003016,
      "inclination_deg": 98.127,
      "raan_deg": 167.679,
      "arg_perigee_deg": 309.8202,
      "mean_anomaly_deg": 50.2735,
      "mean_motion_rev_day": 14.64653846
    },
    {
      "epoch": "2026-04-02T22:29:57.182496Z",
      "apogee_km": 680.3108244642053,
      "perigee_km": 676.0616477378908,
      "latitude_deg": -1.6936346595282417e-05,
      "longitude_deg": -0.953323911258357,
      "height_km": 679.8396318786965,
      "semi_major_axis_km": 7056.323236101048,
      "eccentricity": 0.00030109,
      "inclination_deg": 98.127,
      "raan_deg": 167.8139,
      "arg_perigee_deg": 309.2102,
      "mean_anomaly_deg": 50.8833,
      "mean_motion_rev_day": 14.64654067
    },
    {
      "epoch": "2026-04-03T19:48:49.975488Z",
      "apogee_km": 680.285340284503,
      "perigee_km": 676.0741304568337,
      "latitude_deg": -6.956241458403767e-05,
      "longitude_deg": 39.32855056942775,
      "height_km": 679.9576024528734,
      "semi_major_axis_km": 7056.3167353706685,
      "eccentricity": 0.0002984,
      "inclination_deg": 98.1269,
      "raan_deg": 168.6911,
      "arg_perigee_deg": 305.3679,
      "mean_anomaly_deg": 54.7244,
      "mean_motion_rev_day": 14.64656091
    },
    {
      "epoch": "2026-04-04T05:39:05.068512Z",
      "apogee_km": 680.2761505682556,
      "perigee_km": 676.0789135582936,
      "latitude_deg": 6.218577604952899e-05,
      "longitude_deg": -108.23356880990926,
      "height_km": 680.0157302005656,
      "semi_major_axis_km": 7056.314532063275,
      "eccentricity": 0.00029741,
      "inclination_deg": 98.1268,
      "raan_deg": 169.0959,
      "arg_perigee_deg": 303.5064,
      "mean_anomaly_deg": 56.5855,
      "mean_motion_rev_day": 14.64656777
    },
    {
      "epoch": "2026-04-05T12:48:12.837024Z",
      "apogee_km": 680.2352089465794,
      "perigee_km": 676.1095259856102,
      "latitude_deg": -4.653996270899482e-06,
      "longitude_deg": 144.486696535877,
      "height_km": 680.2096726307875,
      "semi_major_axis_km": 7056.309367466095,
      "eccentricity": 0.00029234,
      "inclination_deg": 98.1267,
      "raan_deg": 170.3779,
      "arg_perigee_deg": 297.7211,
      "mean_anomaly_deg": 62.3695,
      "mean_motion_rev_day": 14.64658385
    },
    {
      "epoch": "2026-04-05T19:21:42.867360Z",
      "apogee_km": 680.2307226888324,
      "perigee_km": 676.1112500863801,
      "latitude_deg": -3.431354152032141e-05,
      "longitude_deg": 46.11213233338439,
      "height_km": 680.2477281302018,
      "semi_major_axis_km": 7056.307986387606,
      "eccentricity": 0.0002919,
      "inclination_deg": 98.1266,
      "raan_deg": 170.6478,
      "arg_perigee_deg": 296.5349,
      "mean_anomaly_deg": 63.5554,
      "mean_motion_rev_day": 14.64658815
    },
    {
      "epoch": "2026-04-06T05:11:57.896448Z",
      "apogee_km": 680.2196330056431,
      "perigee_km": 676.1203420243164,
      "latitude_deg": 1.866740700561771e-05,
      "longitude_deg": -101.44970937580466,
      "height_km": 680.3159070465074,
      "semi_major_axis_km": 7056.3069875149795,
      "eccentricity": 0.00029047,
      "inclination_deg": 98.1265,
      "raan_deg": 171.0526,
      "arg_perigee_deg": 294.5328,
      "mean_anomaly_deg": 65.5572,
      "mean_motion_rev_day": 14.64659126
    },
    {
      "epoch": "2026-04-07T18:54:35.424864Z",
      "apogee_km": 680.1877574754235,
      "perigee_km": 676.1402632158879,
      "latitude_deg": 3.3185170153342806e-05,
      "longitude_deg": 52.89710380281703,
      "height_km": 680.5637910632659,
      "semi_major_axis_km": 7056.301010345655,
      "eccentricity": 0.0002868,
      "inclination_deg": 98.1264,
      "raan_deg": 172.6045,
      "arg_perigee_deg": 287.1676,
      "mean_anomaly_deg": 72.9213,
      "mean_motion_rev_day": 14.64660987
    },
    {
      "epoch": "2026-04-08T14:35:05.375904Z",
      "apogee_km": 680.18067529769,
      "perigee_km": 676.1432021709252,
      "latitude_deg": 7.669087827639652e-06,
      "longitude_deg": 117.77398594861657,
      "height_km": 680.6878712677571,
      "semi_major_axis_km": 7056.298938734308,
      "eccentricity": 0.00028609,
      "inclination_deg": 98.1264,
      "raan_deg": 173.4142,
      "arg_perigee_deg": 283.5001,
      "mean_anomaly_deg": 76.5883,
      "mean_motion_rev_day": 14.64661632
    },
    {
      "epoch": "2026-04-09T20:05:50.212608Z",
      "apogee_km": 680.1654953898687,
      "perigee_km": 676.1476418319025,
      "latitude_deg": 3.92272947730017e-05,
      "longitude_deg": 35.089524775346135,
      "height_km": 680.8772819493275,
      "semi_major_axis_km": 7056.293568610886,
      "eccentricity": 0.0002847,
      "inclination_deg": 98.1262,
      "raan_deg": 174.6286,
      "arg_perigee_deg": 277.9132,
      "mean_anomaly_deg": 82.1748,
      "mean_motion_rev_day": 14.64663304
    },
    {
      "epoch": "2026-04-10T10:51:12.596832Z",
      "apogee_km": 680.1615589445792,
      "perigee_km": 676.1465293404617,
      "latitude_deg": -2.095792066118347e-06,
      "longitude_deg": 173.74744515929234,
      "height_km": 680.9742977669013,
      "semi_major_axis_km": 7056.29104414252,
      "eccentricity": 0.0002845,
      "inclination_deg": 98.1261,
      "raan_deg": 175.2358,
      "arg_perigee_deg": 275.0605,
      "mean_anomaly_deg": 85.0273,
      "mean_motion_rev_day": 14.6466409
    },
    {
      "epoch": "2026-04-11T19:38:42.307008Z",
      "apogee_km": 680.1558654383853,
      "perigee_km": 676.1478933548888,
      "latitude_deg": 5.515082802832261e-05,
      "longitude_deg": 41.8762394581685,
      "height_km": 681.1927892674464,
      "semi_major_axis_km": 7056.288879396637,
      "eccentricity": 0.000284,
      "inclination_deg": 98.126,
      "raan_deg": 176.5851,
      "arg_perigee_deg": 268.7554,
      "mean_anomaly_deg": 91.3324,
      "mean_motion_rev_day": 14.64664764
    }
  ]
}